[{"OBJECT_NAME":"STARLINK-34642","OBJECT_ID":"2025-157G","EPOCH":"2026-03-09T22:13:15.218112","MEAN_MOTION":15.30225255,"ECCENTRICITY":0.00012592,"INCLINATION":53.1584,"RA_OF_ASC_NODE":344.3148,"ARG_OF_PERICENTER":105.4499,"MEAN_ANOMALY":254.6641,"EPHEMERIS_TYPE":0,"CLASSIFICATION_TYPE":"U","NORAD_CAT_ID":64910,"ELEMENT_SET_NO":999,"REV_AT_EPOCH":3616,"BSTAR":0.0014055176,"MEAN_MOTION_DOT":0.00041534,"MEAN_MOTION_DDOT":0},{"OBJECT_NAME":"CZ-6A DEB","OBJECT_ID":"2024-140RA","EPOCH":"2026-03-09T01:51:18.259488","MEAN_MOTION":15.31763252,"ECCENTRICITY":0.00411794,"INCLINATION":89.1856,"RA_OF_ASC_NODE":296.0787,"ARG_OF_PERICENTER":96.6516,"MEAN_ANOMALY":263.9425,"EPHEMERIS_TYPE":0,"CLASSIFICATION_TYPE":"U","NORAD_CAT_ID":61156,"ELEMENT_SET_NO":999,"REV_AT_EPOCH":8391,"BSTAR":0.0079173326,"MEAN_MOTION_DOT":0.00256788,"MEAN_MOTION_DDOT":0}]
